[{"OBJECT_NAME":"OBJECT D","OBJECT_ID":"2024-174D","EPOCH":"2026-03-10T00:15:10.483200","MEAN_MOTION":15.28039787,"ECCENTRICITY":0.00110644,"INCLINATION":97.4441,"RA_OF_ASC_NODE":80.4677,"ARG_OF_PERICENTER":212.9968,"MEAN_ANOMALY":147.0582,"EPHEMERIS_TYPE":0,"CLASSIFICATION_TYPE":"U","NORAD_CAT_ID":61241,"ELEMENT_SET_NO":999,"REV_AT_EPOCH":8076,"BSTAR":0.00036340099,"MEAN_MOTION_DOT":9.884e-5,"MEAN_MOTION_DDOT":0},{"OBJECT_NAME":"STARLINK-34626","OBJECT_ID":"2025-167E","EPOCH":"2026-03-09T22:48:23.488704","MEAN_MOTION":15.30163254,"ECCENTRICITY":0.00014881,"INCLINATION":53.1604,"RA_OF_ASC_NODE":25.2534,"ARG_OF_PERICENTER":79.2368,"MEAN_ANOMALY":280.88,"EPHEMERIS_TYPE":0,"CLASSIFICATION_TYPE":"U","NORAD_CAT_ID":65082,"ELEMENT_SET_NO":999,"REV_AT_EPOCH":3352,"BSTAR":0.00094352376,"MEAN_MOTION_DOT":0.00027658,"MEAN_MOTION_DDOT":0}]
